{
  "type": "FeatureCollection",
  "features": [
    {
      "type": "Feature",
      "properties": {
        "norad_id": 55973,
        "name": "TIANMU-1 03",
        "group": "weather",
        "lat": -8.919661194026519,
        "lon": 144.92025821294624,
        "alt_km": 448.0267841862478,
        "timestamp": "2025-12-07T05:38:09.551426+00:00",
        "meta_object_name": "TIANMU-1 03",
        "meta_object_id": "2023-039A",
        "meta_epoch": "2025-12-06T14:05:13.960896",
        "meta_mean_motion": 15.40657425,
        "meta_eccentricity": 0.00045066,
        "meta_inclination": 97.5108,
        "meta_ra_of_asc_node": 143.0682,
        "meta_arg_of_pericenter": 78.8279,
        "meta_mean_anomaly": 281.3473,
        "meta_ephemeris_type": 0,
        "meta_classification_type": "U",
        "meta_norad_cat_id": 55973,
        "meta_element_set_no": 999,
        "meta_rev_at_epoch": 15111,
        "meta_bstar": 0.00056798119,
        "meta_mean_motion_dot": 0.00023118,
        "meta_mean_motion_ddot": 0,
        "tle_line1": "1 55973U 23039A   25340.58696714  .00023118  00000+0  56798-3 0  9998",
        "tle_line2": "2 55973  97.5108 143.0682 0004506  78.8279 281.3473 15.40657425151117"
      },
      "geometry": {
        "type": "Point",
        "coordinates": [
          144.92025821294624,
          -8.919661194026519
        ]
      }
    },
    {
      "type": "Feature",
      "properties": {
        "norad_id": 55974,
        "name": "TIANMU-1 04",
        "group": "weather",
        "lat": 78.63032887499017,
        "lon": 3.8863300842042396,
        "alt_km": 432.5947471363006,
        "timestamp": "2025-12-07T05:38:09.551437+00:00",
        "meta_object_name": "TIANMU-1 04",
        "meta_object_id": "2023-039B",
        "meta_epoch": "2025-12-06T13:37:33.274272",
        "meta_mean_motion": 15.40987962,
        "meta_eccentricity": 0.00052164,
        "meta_inclination": 97.5039,
        "meta_ra_of_asc_node": 142.2421,
        "meta_arg_of_pericenter": 74.4699,
        "meta_mean_anomaly": 285.7123,
        "meta_ephemeris_type": 0,
        "meta_classification_type": "U",
        "meta_norad_cat_id": 55974,
        "meta_element_set_no": 999,
        "meta_rev_at_epoch": 15111,
        "meta_bstar": 0.00057812007,
        "meta_mean_motion_dot": 0.00023795,
        "meta_mean_motion_ddot": 0,
        "tle_line1": "1 55974U 23039B   25340.56774623  .00023795  00000+0  57812-3 0  9992",
        "tle_line2": "2 55974  97.5039 142.2421 0005216  74.4699 285.7123 15.40987962151112"
      },
      "geometry": {
        "type": "Point",
        "coordinates": [
          3.8863300842042396,
          78.63032887499017
        ]
      }
    },
    {
      "type": "Feature",
      "properties": {
        "norad_id": 55975,
        "name": "TIANMU-1 05",
        "group": "weather",
        "lat": 41.56224611667166,
        "lon": -29.864802051596026,
        "alt_km": 438.8226475895517,
        "timestamp": "2025-12-07T05:38:09.551447+00:00",
        "meta_object_name": "TIANMU-1 05",
        "meta_object_id": "2023-039C",
        "meta_epoch": "2025-12-06T13:27:05.680224",
        "meta_mean_motion": 15.40613778,
        "meta_eccentricity": 0.00043591,
        "meta_inclination": 97.5085,
        "meta_ra_of_asc_node": 142.7267,
        "meta_arg_of_pericenter": 95.5259,
        "meta_mean_anomaly": 264.6484,
        "meta_ephemeris_type": 0,
        "meta_classification_type": "U",
        "meta_norad_cat_id": 55975,
        "meta_element_set_no": 999,
        "meta_rev_at_epoch": 15109,
        "meta_bstar": 0.00058807278,
        "meta_mean_motion_dot": 0.00023906,
        "meta_mean_motion_ddot": 0,
        "tle_line1": "1 55975U 23039C   25340.56048241  .00023906  00000+0  58807-3 0  9992",
        "tle_line2": "2 55975  97.5085 142.7267 0004359  95.5259 264.6484 15.40613778151094"
      },
      "geometry": {
        "type": "Point",
        "coordinates": [
          -29.864802051596026,
          41.56224611667166
        ]
      }
    },
    {
      "type": "Feature",
      "properties": {
        "norad_id": 55976,
        "name": "TIANMU-1 06",
        "group": "weather",
        "lat": 81.20249680890014,
        "lon": 85.40875328941706,
        "alt_km": 432.3126484988152,
        "timestamp": "2025-12-07T05:38:09.551457+00:00",
        "meta_object_name": "TIANMU-1 06",
        "meta_object_id": "2023-039D",
        "meta_epoch": "2025-12-06T13:40:59.253600",
        "meta_mean_motion": 15.4104085,
        "meta_eccentricity": 0.00047009,
        "meta_inclination": 97.5096,
        "meta_ra_of_asc_node": 143.1966,
        "meta_arg_of_pericenter": 90.9833,
        "meta_mean_anomaly": 269.1952,
        "meta_ephemeris_type": 0,
        "meta_classification_type": "U",
        "meta_norad_cat_id": 55976,
        "meta_element_set_no": 999,
        "meta_rev_at_epoch": 15111,
        "meta_bstar": 0.00058142838,
        "meta_mean_motion_dot": 0.00023972,
        "meta_mean_motion_ddot": 0,
        "tle_line1": "1 55976U 23039D   25340.57013025  .00023972  00000+0  58143-3 0  9992",
        "tle_line2": "2 55976  97.5096 143.1966 0004700  90.9833 269.1952 15.41040850151114"
      },
      "geometry": {
        "type": "Point",
        "coordinates": [
          85.40875328941706,
          81.20249680890014
        ]
      }
    },
    {
      "type": "Feature",
      "properties": {
        "norad_id": 56232,
        "name": "FENGYUN 3G",
        "group": "weather",
        "lat": -41.201460520222,
        "lon": 123.18155143156469,
        "alt_km": 414.43872869477946,
        "timestamp": "2025-12-07T05:38:09.551467+00:00",
        "meta_object_name": "FENGYUN 3G",
        "meta_object_id": "2023-055A",
        "meta_epoch": "2025-12-06T11:37:33.308256",
        "meta_mean_motion": 15.53095552,
        "meta_eccentricity": 0.00092335,
        "meta_inclination": 49.9945,
        "meta_ra_of_asc_node": 259.7218,
        "meta_arg_of_pericenter": 118.6784,
        "meta_mean_anomaly": 241.5113,
        "meta_ephemeris_type": 0,
        "meta_classification_type": "U",
        "meta_norad_cat_id": 56232,
        "meta_element_set_no": 999,
        "meta_rev_at_epoch": 15005,
        "meta_bstar": 0.00073488736,
        "meta_mean_motion_dot": 0.00046804,
        "meta_mean_motion_ddot": 0,
        "tle_line1": "1 56232U 23055A   25340.48441329  .00046804  00000+0  73489-3 0  9997",
        "tle_line2": "2 56232  49.9945 259.7218 0009233 118.6784 241.5113 15.53095552150054"
      },
      "geometry": {
        "type": "Point",
        "coordinates": [
          123.18155143156469,
          -41.201460520222
        ]
      }
    },
    {
      "type": "Feature",
      "properties": {
        "norad_id": 57166,
        "name": "METEOR-M2 3",
        "group": "weather",
        "lat": 56.49018816985412,
        "lon": -131.85654889924902,
        "alt_km": 806.7873635744727,
        "timestamp": "2025-12-07T05:38:09.551477+00:00",
        "meta_object_name": "METEOR-M2 3",
        "meta_object_id": "2023-091A",
        "meta_epoch": "2025-12-06T13:53:11.157504",
        "meta_mean_motion": 14.24025017,
        "meta_eccentricity": 0.00042447,
        "meta_inclination": 98.6387,
        "meta_ra_of_asc_node": 34.2253,
        "meta_arg_of_pericenter": 25.7227,
        "meta_mean_anomaly": 334.4162,
        "meta_ephemeris_type": 0,
        "meta_classification_type": "U",
        "meta_norad_cat_id": 57166,
        "meta_element_set_no": 999,
        "meta_rev_at_epoch": 12710,
        "meta_bstar": 5.2018901e-05,
        "meta_mean_motion_dot": 7.6e-07,
        "meta_mean_motion_ddot": 0,
        "tle_line1": "1 57166U 23091A   25340.57860136  .00000076  00000+0  52019-4 0  9993",
        "tle_line2": "2 57166  98.6387  34.2253 0004244  25.7227 334.4162 14.24025017127106"
      },
      "geometry": {
        "type": "Point",
        "coordinates": [
          -131.85654889924902,
          56.49018816985412
        ]
      }
    },
    {
      "type": "Feature",
      "properties": {
        "norad_id": 57399,
        "name": "TIANMU-1 07",
        "group": "weather",
        "lat": 51.540740184643774,
        "lon": 21.93423430958104,
        "alt_km": 474.3720888788848,
        "timestamp": "2025-12-07T05:38:09.551489+00:00",
        "meta_object_name": "TIANMU-1 07",
        "meta_object_id": "2023-101A",
        "meta_epoch": "2025-12-06T15:15:46.665792",
        "meta_mean_motion": 15.27940086,
        "meta_eccentricity": 0.00056052,
        "meta_inclination": 97.2881,
        "meta_ra_of_asc_node": 30.6211,
        "meta_arg_of_pericenter": 96.83,
        "meta_mean_anomaly": 263.3578,
        "meta_ephemeris_type": 0,
        "meta_classification_type": "U",
        "meta_norad_cat_id": 57399,
        "meta_element_set_no": 999,
        "meta_rev_at_epoch": 13222,
        "meta_bstar": 0.00044663823,
        "meta_mean_motion_dot": 0.00012118,
        "meta_mean_motion_ddot": 0,
        "tle_line1": "1 57399U 23101A   25340.63595678  .00012118  00000+0  44664-3 0  9992",
        "tle_line2": "2 57399  97.2881  30.6211 0005605  96.8300 263.3578 15.27940086132221"
      },
      "geometry": {
        "type": "Point",
        "coordinates": [
          21.93423430958104,
          51.540740184643774
        ]
      }
    }
  ]
}